start=new Date('2022-03-31T00:00:00.000Z').valueOf();
sats=[{"OBJECT_TYPE":"PAYLOAD","RA_OF_ASC_NODE":"245.7828","APOAPSIS":"548.363","RCS_SIZE":"MEDIUM","EPHEMERIS_TYPE":"0","TLE_LINE2":"2 47829  53.0541 245.7828 0001663  39.4762 320.6348 15.06400696 59415","OBJECT_NAME":"STARLINK-2416","MEAN_ELEMENT_THEORY":"SGP4","ECCENTRICITY":"0.00016630","TIME_SYSTEM":"UTC","ARG_OF_PERICENTER":"39.4762","CLASSIFICATION_TYPE":"U","MEAN_MOTION":"15.06400696","CENTER_NAME":"EARTH","MEAN_ANOMALY":"320.6348","COUNTRY_CODE":"US","SEMIMAJOR_AXIS":"6925.346","OBJECT_ID":"2021-018AU","MEAN_MOTION_DOT":"0.00000799","PERIAPSIS":"546.060","FILE":"3380787","DECAY_DATE":null,"BSTAR":"0.00007256400000","ELEMENT_SET_NO":"999","REV_AT_EPOCH":"5941","SITE":"AFETR","TLE_LINE1":"1 47829U 21018AU  22089.74714650  .00000799  00000-0  72564-4 0  9990","LAUNCH_DATE":"2021-03-11","PERIOD":"95.592","MEAN_MOTION_DDOT":"0.0000000000000","EPOCH":"2022-03-30T17:55:53.457600","INCLINATION":"53.0541","REF_FRAME":"TEME","NORAD_CAT_ID":"47829","GP_ID":"200096169"},{"PERIOD":"95.591","LAUNCH_DATE":"2021-03-11","TLE_LINE1":"1 47830U 21018AV  22089.80980525  .00003634  00000-0  26264-3 0  9991","SITE":"AFETR","REV_AT_EPOCH":"5942","ELEMENT_SET_NO":"999","BSTAR":"0.00026264000000","DECAY_DATE":null,"PERIAPSIS":"546.143","FILE":"3380787","MEAN_MOTION_DOT":"0.00003634","OBJECT_ID":"2021-018AV","SEMIMAJOR_AXIS":"6925.314","GP_ID":"200096419","NORAD_CAT_ID":"47830","REF_FRAME":"TEME","INCLINATION":"53.0540","MEAN_MOTION_DDOT":"0.0000000000000","EPOCH":"2022-03-30T19:26:07.173600","MEAN_ELEMENT_THEORY":"SGP4","OBJECT_NAME":"STARLINK-2419","TLE_LINE2":"2 47830  53.0540 245.4981 0001496  61.3178 298.7961 15.06411355 59423","EPHEMERIS_TYPE":"0","RCS_SIZE":"LARGE","APOAPSIS":"548.215","RA_OF_ASC_NODE":"245.4981","OBJECT_TYPE":"PAYLOAD","COUNTRY_CODE":"US","MEAN_ANOMALY":"298.7961","CENTER_NAME":"EARTH","MEAN_MOTION":"15.06411355","CLASSIFICATION_TYPE":"U","ARG_OF_PERICENTER":"61.3178","TIME_SYSTEM":"UTC","ECCENTRICITY":"0.00014960"},{"MEAN_MOTION_DOT":"-0.00000855","SEMIMAJOR_AXIS":"6925.367","OBJECT_ID":"2021-018AW","BSTAR":"-0.00003849700000","PERIAPSIS":"546.147","FILE":"3380787","DECAY_DATE":null,"TLE_LINE1":"1 47831U 21018AW  22089.67758267 -.00000855  00000-0 -38497-4 0  9999","ELEMENT_SET_NO":"999","REV_AT_EPOCH":"5981","SITE":"AFETR","PERIOD":"95.593","LAUNCH_DATE":"2021-03-11","INCLINATION":"53.0595","REF_FRAME":"TEME","MEAN_MOTION_DDOT":"0.0000000000000","EPOCH":"2022-03-30T16:15:43.142688","NORAD_CAT_ID":"47831","GP_ID":"200097171","OBJECT_TYPE":"PAYLOAD","RA_OF_ASC_NODE":"221.0730","APOAPSIS":"548.317","EPHEMERIS_TYPE":"0","RCS_SIZE":"LARGE","MEAN_ELEMENT_THEORY":"SGP4","TLE_LINE2":"2 47831  53.0595 221.0730 0001567  60.5263 299.5883 15.06394025 59810","OBJECT_NAME":"STARLINK-2420","MEAN_MOTION":"15.06394025","TIME_SYSTEM":"UTC","ECCENTRICITY":"0.00015670","ARG_OF_PERICENTER":"60.5263","CLASSIFICATION_TYPE":"U","CENTER_NAME":"EARTH","MEAN_ANOMALY":"299.5883","COUNTRY_CODE":"US"},{"CENTER_NAME":"EARTH","MEAN_MOTION":"15.06437341","TIME_SYSTEM":"UTC","ECCENTRICITY":"0.00013980","CLASSIFICATION_TYPE":"U","ARG_OF_PERICENTER":"68.4348","MEAN_ANOMALY":"291.6790","COUNTRY_CODE":"US","OBJECT_TYPE":"PAYLOAD","RA_OF_ASC_NODE":"235.6955","APOAPSIS":"548.067","MEAN_ELEMENT_THEORY":"SGP4","TLE_LINE2":"2 47832  53.0546 235.6955 0001398  68.4348 291.6790 15.06437341 59235","OBJECT_NAME":"STARLINK-2422","EPHEMERIS_TYPE":"0","RCS_SIZE":"LARGE","NORAD_CAT_ID":"47832","INCLINATION":"53.0546","REF_FRAME":"TEME","MEAN_MOTION_DDOT":"0.0000000000000","EPOCH":"2022-03-30T18:23:42.176832","GP_ID":"200046506","BSTAR":"0.00026682000000","PERIAPSIS":"546.131","FILE":"3380622","DECAY_DATE":null,"MEAN_MOTION_DOT":"0.00003699","SEMIMAJOR_AXIS":"6925.234","OBJECT_ID":"2021-018AX","PERIOD":"95.590","LAUNCH_DATE":"2021-03-11","TLE_LINE1":"1 47832U 21018AX  22089.76646038  .00003699  00000-0  26682-3 0  9991","ELEMENT_SET_NO":"999","SITE":"AFETR","REV_AT_EPOCH":"5923"},{"DECAY_DATE":null,"FILE":"3380787","PERIAPSIS":"546.109","BSTAR":"0.00033117000000","OBJECT_ID":"2021-018AY","SEMIMAJOR_AXIS":"6925.314","MEAN_MOTION_DOT":"0.00004656","LAUNCH_DATE":"2021-03-11","PERIOD":"95.591","SITE":"AFETR","REV_AT_EPOCH":"5959","ELEMENT_SET_NO":"999","TLE_LINE1":"1 47833U 21018AY  22089.59325534  .00004656  00000-0  33117-3 0  9993","NORAD_CAT_ID":"47833","MEAN_MOTION_DDOT":"0.0000000000000","EPOCH":"2022-03-30T14:14:17.261376","REF_FRAME":"TEME","INCLINATION":"53.0533","GP_ID":"200096670","RA_OF_ASC_NODE":"236.4750","APOAPSIS":"548.249","OBJECT_TYPE":"PAYLOAD","OBJECT_NAME":"STARLINK-2423","TLE_LINE2":"2 47833  53.0533 236.4750 0001545  63.1348 296.9799 15.06411395 59597","MEAN_ELEMENT_THEORY":"SGP4","RCS_SIZE":"LARGE","EPHEMERIS_TYPE":"0","CENTER_NAME":"EARTH","ARG_OF_PERICENTER":"63.1348","CLASSIFICATION_TYPE":"U","ECCENTRICITY":"0.00015450","TIME_SYSTEM":"UTC","MEAN_MOTION":"15.06411395","COUNTRY_CODE":"US","MEAN_ANOMALY":"296.9799"},{"BSTAR":"0.00003545900000","DECAY_DATE":null,"FILE":"3380787","PERIAPSIS":"546.159","MEAN_MOTION_DOT":"0.00000247","SEMIMAJOR_AXIS":"6925.355","OBJECT_ID":"2021-018AZ","PERIOD":"95.592","LAUNCH_DATE":"2021-03-11","TLE_LINE1":"1 47834U 21018AZ  22089.60430806  .00000247  00000-0  35459-4 0  9999","SITE":"AFETR","REV_AT_EPOCH":"5959","ELEMENT_SET_NO":"999","NORAD_CAT_ID":"47834","REF_FRAME":"TEME","INCLINATION":"53.0538","MEAN_MOTION_DDOT":"0.0000000000000","EPOCH":"2022-03-30T14:30:12.216384","GP_ID":"200096920","APOAPSIS":"548.281","RA_OF_ASC_NODE":"236.4191","OBJECT_TYPE":"PAYLOAD","MEAN_ELEMENT_THEORY":"SGP4","OBJECT_NAME":"STARLINK-2424","TLE_LINE2":"2 47834  53.0538 236.4191 0001532  71.9221 288.1935 15.06397854 59593","EPHEMERIS_TYPE":"0","RCS_SIZE":"LARGE","CENTER_NAME":"EARTH","MEAN_MOTION":"15.06397854","ARG_OF_PERICENTER":"71.9221","CLASSIFICATION_TYPE":"U","TIME_SYSTEM":"UTC","ECCENTRICITY":"0.00015320","COUNTRY_CODE":"US","MEAN_ANOMALY":"288.1935"},{"PERIOD":"95.592","LAUNCH_DATE":"2021-03-11","TLE_LINE1":"1 47835U 21018BA  22089.81853050 -.00000618  00000-0 -22582-4 0  9990","ELEMENT_SET_NO":"999","SITE":"AFETR","REV_AT_EPOCH":"5949","BSTAR":"-0.00002258200000","FILE":"3380787","PERIAPSIS":"546.332","DECAY_DATE":null,"MEAN_MOTION_DOT":"-0.00000618","SEMIMAJOR_AXIS":"6925.350","OBJECT_ID":"2021-018BA","GP_ID":"200097672","NORAD_CAT_ID":"47835","INCLINATION":"53.0520","REF_FRAME":"TEME","MEAN_MOTION_DDOT":"0.0000000000000","EPOCH":"2022-03-30T19:38:41.035200","MEAN_ELEMENT_THEORY":"SGP4","TLE_LINE2":"2 47835  53.0520 240.4471 0001276  62.5802 297.5317 15.06399424 59499","OBJECT_NAME":"STARLINK-2425","EPHEMERIS_TYPE":"0","RCS_SIZE":"LARGE","OBJECT_TYPE":"PAYLOAD","APOAPSIS":"548.099","RA_OF_ASC_NODE":"240.4471","MEAN_ANOMALY":"297.5317","COUNTRY_CODE":"US","CENTER_NAME":"EARTH","MEAN_MOTION":"15.06399424","TIME_SYSTEM":"UTC","ECCENTRICITY":"0.00012760","CLASSIFICATION_TYPE":"U","ARG_OF_PERICENTER":"62.5802"},{"BSTAR":"-0.00003465900000","PERIAPSIS":"546.303","FILE":"3380787","DECAY_DATE":null,"MEAN_MOTION_DOT":"-0.00000798","OBJECT_ID":"2021-018BB","SEMIMAJOR_AXIS":"6925.347","PERIOD":"95.592","LAUNCH_DATE":"2021-03-11","TLE_LINE1":"1 47836U 21018BB  22089.81346819 -.00000798  00000-0 -34659-4 0  9998","ELEMENT_SET_NO":"999","REV_AT_EPOCH":"5957","SITE":"AFETR","NORAD_CAT_ID":"47836","INCLINATION":"53.0541","REF_FRAME":"TEME","EPOCH":"2022-03-30T19:31:23.651616","MEAN_MOTION_DDOT":"0.0000000000000","GP_ID":"200097422","OBJECT_TYPE":"PAYLOAD","RA_OF_ASC_NODE":"235.4810","APOAPSIS":"548.121","MEAN_ELEMENT_THEORY":"SGP4","TLE_LINE2":"2 47836  53.0541 235.4810 0001312  44.7021 315.4074 15.06400535 59575","OBJECT_NAME":"STARLINK-2426","EPHEMERIS_TYPE":"0","RCS_SIZE":"LARGE","CENTER_NAME":"EARTH","MEAN_MOTION":"15.06400535","ECCENTRICITY":"0.00013120","TIME_SYSTEM":"UTC","ARG_OF_PERICENTER":"44.7021","CLASSIFICATION_TYPE":"U","MEAN_ANOMALY":"315.4074","COUNTRY_CODE":"US"},{"PERIOD":"95.592","LAUNCH_DATE":"2021-03-11","TLE_LINE1":"1 47837U 21018BC  22089.83100028 -.00000106  00000-0  11801-4 0  9997","ELEMENT_SET_NO":"999","REV_AT_EPOCH":"5986","SITE":"AFETR","BSTAR":"0.00001180100000","PERIAPSIS":"545.995","FILE":"3380787","DECAY_DATE":null,"MEAN_MOTION_DOT":"-0.00000106","OBJECT_ID":"2021-018BC","SEMIMAJOR_AXIS":"6925.336","GP_ID":"200096170","NORAD_CAT_ID":"47837","INCLINATION":"53.0537","REF_FRAME":"TEME","EPOCH":"2022-03-30T19:56:38.424192","MEAN_MOTION_DDOT":"0.0000000000000","MEAN_ELEMENT_THEORY":"SGP4","TLE_LINE2":"2 47837  53.0537 215.4041 0001742  51.5740 308.5405 15.06404106 59867","OBJECT_NAME":"STARLINK-2427","EPHEMERIS_TYPE":"0","RCS_SIZE":"LARGE","OBJECT_TYPE":"PAYLOAD","APOAPSIS":"548.407","RA_OF_ASC_NODE":"215.4041","MEAN_ANOMALY":"308.5405","COUNTRY_CODE":"US","CENTER_NAME":"EARTH","MEAN_MOTION":"15.06404106","ECCENTRICITY":"0.00017420","TIME_SYSTEM":"UTC","CLASSIFICATION_TYPE":"U","ARG_OF_PERICENTER":"51.5740"},{"COUNTRY_CODE":"US","MEAN_ANOMALY":"296.5576","CLASSIFICATION_TYPE":"U","ARG_OF_PERICENTER":"63.5571","ECCENTRICITY":"0.00015420","TIME_SYSTEM":"UTC","MEAN_MOTION":"15.06400378","CENTER_NAME":"EARTH","RCS_SIZE":"LARGE","EPHEMERIS_TYPE":"0","OBJECT_NAME":"STARLINK-2429","TLE_LINE2":"2 47838  53.0538 235.3391 0001542  63.5571 296.5576 15.06400378 59571","MEAN_ELEMENT_THEORY":"SGP4","APOAPSIS":"548.280","RA_OF_ASC_NODE":"235.3391","OBJECT_TYPE":"PAYLOAD","GP_ID":"200096420","EPOCH":"2022-03-30T20:15:13.063680","MEAN_MOTION_DDOT":"0.0000000000000","REF_FRAME":"TEME","INCLINATION":"53.0538","NORAD_CAT_ID":"47838","SITE":"AFETR","REV_AT_EPOCH":"5957","ELEMENT_SET_NO":"999","TLE_LINE1":"1 47838U 21018BD  22089.84390120  .00002742  00000-0  20289-3 0  9999","LAUNCH_DATE":"2021-03-11","PERIOD":"95.592","OBJECT_ID":"2021-018BD","SEMIMAJOR_AXIS":"6925.347","MEAN_MOTION_DOT":"0.00002742","DECAY_DATE":null,"PERIAPSIS":"546.145","FILE":"3380787","BSTAR":"0.00020289000000"}];
